[
    {
        "Altitude(m)": 564215.1821241784,
        "Argument of Periapsis(deg)": 0.006622991110713501,
        "Eccentricity": 0.0,
        "Inclination(deg)": 53.0,
        "Latitude(deg)": -34.34441285469455,
        "Longitude(deg)": 150.0295943687885,
        "Mean Anomaly(deg)": 224.63709286757756,
        "RAAN(deg)": 39.99014336852801,
        "Satellite Name": "Starlink Shell 1 189",
        "Satellite Number": 189,
        "Semi-Major Axis(m)": 6931778.249405717,
        "Time(s)": 190
    },
    {
        "Altitude(m)": 564388.4651040129,
        "Argument of Periapsis(deg)": 0.0069715695902247375,
        "Eccentricity": 0.0,
        "Inclination(deg)": 53.0,
        "Latitude(deg)": -34.7737169557841,
        "Longitude(deg)": 150.5411978446594,
        "Mean Anomaly(deg)": 225.26392407113428,
        "RAAN(deg)": 39.98962459845054,
        "Satellite Name": "Starlink Shell 1 189",
        "Satellite Number": 189,
        "Semi-Major Axis(m)": 6931778.249405717,
        "Time(s)": 200
    },
    {
        "Altitude(m)": 564561.1941150319,
        "Argument of Periapsis(deg)": 0.007320148069735974,
        "Eccentricity": 0.0,
        "Inclination(deg)": 53.0,
        "Latitude(deg)": -35.200442556919654,
        "Longitude(deg)": 151.05852015690493,
        "Mean Anomaly(deg)": 225.89075527469103,
        "RAAN(deg)": 39.98910582837307,
        "Satellite Name": "Starlink Shell 1 189",
        "Satellite Number": 189,
        "Semi-Major Axis(m)": 6931778.249405717,
        "Time(s)": 210
    },
    {
        "Altitude(m)": 564733.3029886713,
        "Argument of Periapsis(deg)": 0.007668726549247212,
        "Eccentricity": 0.0,
        "Inclination(deg)": 53.0,
        "Latitude(deg)": -35.62452306066405,
        "Longitude(deg)": 151.58167766465382,
        "Mean Anomaly(deg)": 226.51758647824772,
        "RAAN(deg)": 39.98858705829559,
        "Satellite Name": "Starlink Shell 1 189",
        "Satellite Number": 189,
        "Semi-Major Axis(m)": 6931778.249405717,
        "Time(s)": 220
    },
    {
        "Altitude(m)": 564904.7256874049,
        "Argument of Periapsis(deg)": 0.00801730502875845,
        "Eccentricity": 0.0,
        "Inclination(deg)": 53.0,
        "Latitude(deg)": -36.0458903415232,
        "Longitude(deg)": 152.11078744021813,
        "Mean Anomaly(deg)": 227.14441768180447,
        "RAAN(deg)": 39.98806828821812,
        "Satellite Name": "Starlink Shell 1 189",
        "Satellite Number": 189,
        "Semi-Major Axis(m)": 6931778.249405717,
        "Time(s)": 230
    },
    {
        "Altitude(m)": 565075.3963341857,
        "Argument of Periapsis(deg)": 0.008365883508269684,
        "Eccentricity": 0.0,
        "Inclination(deg)": 53.0,
        "Latitude(deg)": -36.46447471523886,
        "Longitude(deg)": 152.64596767931576,
        "Mean Anomaly(deg)": 227.77124888536113,
        "RAAN(deg)": 39.98754951814065,
        "Satellite Name": "Starlink Shell 1 189",
        "Satellite Number": 189,
        "Semi-Major Axis(m)": 6931778.249405717,
        "Time(s)": 240
    },
    {
        "Altitude(m)": 565245.2492418552,
        "Argument of Periapsis(deg)": 0.008714461987780921,
        "Eccentricity": 0.0,
        "Inclination(deg)": 53.0,
        "Latitude(deg)": -36.88020490876987,
        "Longitude(deg)": 153.1873365888242,
        "Mean Anomaly(deg)": 228.3980800889179,
        "RAAN(deg)": 39.98703074806318,
        "Satellite Name": "Starlink Shell 1 189",
        "Satellite Number": 189,
        "Semi-Major Axis(m)": 6931778.249405717,
        "Time(s)": 250
    },
    {
        "Altitude(m)": 565414.2189424228,
        "Argument of Periapsis(deg)": 0.009063040467292158,
        "Eccentricity": 0.0,
        "Inclination(deg)": 53.0,
        "Latitude(deg)": -37.293008031108016,
        "Longitude(deg)": 153.73501277724756,
        "Mean Anomaly(deg)": 229.02491129247463,
        "RAAN(deg)": 39.98651197798571,
        "Satellite Name": "Starlink Shell 1 189",
        "Satellite Number": 189,
        "Semi-Major Axis(m)": 6931778.249405717,
        "Time(s)": 260
    },
    {
        "Altitude(m)": 565582.2402162299,
        "Argument of Periapsis(deg)": 0.009411618946803396,
        "Eccentricity": 0.0,
        "Inclination(deg)": 53.0,
        "Latitude(deg)": -37.70280954508463,
        "Longitude(deg)": 154.28911563445672,
        "Mean Anomaly(deg)": 229.65174249603132,
        "RAAN(deg)": 39.98599320790824,
        "Satellite Name": "Starlink Shell 1 189",
        "Satellite Number": 189,
        "Semi-Major Axis(m)": 6931778.249405717,
        "Time(s)": 270
    },
    {
        "Altitude(m)": 565749.2481210075,
        "Argument of Periapsis(deg)": 0.009760197426314633,
        "Eccentricity": 0.0,
        "Inclination(deg)": 53.0,
        "Latitude(deg)": -38.1095332403313,
        "Longitude(deg)": 154.84976418724392,
        "Mean Anomaly(deg)": 230.27857369958804,
        "RAAN(deg)": 39.98547443783076,
        "Satellite Name": "Starlink Shell 1 189",
        "Satellite Number": 189,
        "Semi-Major Axis(m)": 6931778.249405717,
        "Time(s)": 280
    },
    {
        "Altitude(m)": 565915.1780207675,
        "Argument of Periapsis(deg)": 0.01010877590582587,
        "Eccentricity": 0.0,
        "Inclination(deg)": 53.0,
        "Latitude(deg)": -38.51310120758109,
        "Longitude(deg)": 155.4170774558436,
        "Mean Anomaly(deg)": 230.9054049031447,
        "RAAN(deg)": 39.98495566775329,
        "Satellite Name": "Starlink Shell 1 189",
        "Satellite Number": 189,
        "Semi-Major Axis(m)": 6931778.249405717,
        "Time(s)": 290
    },
    {
        "Altitude(m)": 566079.9656145722,
        "Argument of Periapsis(deg)": 0.010457354385337106,
        "Eccentricity": 0.0,
        "Inclination(deg)": 53.0,
        "Latitude(deg)": -38.91343381450365,
        "Longitude(deg)": 155.99117479795177,
        "Mean Anomaly(deg)": 231.53223610670145,
        "RAAN(deg)": 39.98443689767581,
        "Satellite Name": "Starlink Shell 1 189",
        "Satellite Number": 189,
        "Semi-Major Axis(m)": 6931778.249405717,
        "Time(s)": 300
    },
    {
        "Altitude(m)": 566243.5469650959,
        "Argument of Periapsis(deg)": 0.010805932864848343,
        "Eccentricity": 0.0,
        "Inclination(deg)": 53.0,
        "Latitude(deg)": -39.310449683278996,
        "Longitude(deg)": 156.5721747267685,
        "Mean Anomaly(deg)": 232.1590673102582,
        "RAAN(deg)": 39.983918127598336,
        "Satellite Name": "Starlink Shell 1 189",
        "Satellite Number": 189,
        "Semi-Major Axis(m)": 6931778.249405717,
        "Time(s)": 310
    },
    {
        "Altitude(m)": 566405.858527061,
        "Argument of Periapsis(deg)": 0.01115451134435958,
        "Eccentricity": 0.0,
        "Inclination(deg)": 53.0,
        "Latitude(deg)": -39.70406567013961,
        "Longitude(deg)": 157.16019522821261,
        "Mean Anomaly(deg)": 232.7858985138149,
        "RAAN(deg)": 39.98339935752087,
        "Satellite Name": "Starlink Shell 1 189",
        "Satellite Number": 189,
        "Semi-Major Axis(m)": 6931778.249405717,
        "Time(s)": 320
    },
    {
        "Altitude(m)": 566566.8371754283,
        "Argument of Periapsis(deg)": 0.011503089823870818,
        "Eccentricity": 0.0,
        "Inclination(deg)": 53.0,
        "Latitude(deg)": -40.09419684711569,
        "Longitude(deg)": 157.75535406384262,
        "Mean Anomaly(deg)": 233.41272971737163,
        "RAAN(deg)": 39.9828805874434,
        "Satellite Name": "Starlink Shell 1 189",
        "Satellite Number": 189,
        "Semi-Major Axis(m)": 6931778.249405717,
        "Time(s)": 330
    },
    {
        "Altitude(m)": 566726.4202334146,
        "Argument of Periapsis(deg)": 0.011851668303382053,
        "Eccentricity": 0.0,
        "Inclination(deg)": 53.0,
        "Latitude(deg)": -40.48075648623538,
        "Longitude(deg)": 158.3577675460346,
        "Mean Anomaly(deg)": 234.03956092092832,
        "RAAN(deg)": 39.98236181736592,
        "Satellite Name": "Starlink Shell 1 189",
        "Satellite Number": 189,
        "Semi-Major Axis(m)": 6931778.249405717,
        "Time(s)": 340
    },
    {
        "Altitude(m)": 566884.5455003012,
        "Argument of Periapsis(deg)": 0.012200246782893292,
        "Eccentricity": 0.0,
        "Inclination(deg)": 53.0,
        "Latitude(deg)": -40.86365604645296,
        "Longitude(deg)": 158.96755081059874,
        "Mean Anomaly(deg)": 234.666392124485,
        "RAAN(deg)": 39.98184304728845,
        "Satellite Name": "Starlink Shell 1 189",
        "Satellite Number": 189,
        "Semi-Major Axis(m)": 6931778.249405717,
        "Time(s)": 350
    },
    {
        "Altitude(m)": 567041.151278987,
        "Argument of Periapsis(deg)": 0.012548825262404526,
        "Eccentricity": 0.0,
        "Inclination(deg)": 53.0,
        "Latitude(deg)": -41.242805163588734,
        "Longitude(deg)": 159.584818073428,
        "Mean Anomaly(deg)": 235.2932233280418,
        "RAAN(deg)": 39.98132427721097,
        "Satellite Name": "Starlink Shell 1 189",
        "Satellite Number": 189,
        "Semi-Major Axis(m)": 6931778.249405717,
        "Time(s)": 360
    },
    {
        "Altitude(m)": 567196.1764033216,
        "Argument of Periapsis(deg)": 0.012897403741915765,
        "Eccentricity": 0.0,
        "Inclination(deg)": 53.0,
        "Latitude(deg)": -41.61811164357615,
        "Longitude(deg)": 160.20968135780137,
        "Mean Anomaly(deg)": 235.92005453159848,
        "RAAN(deg)": 39.9808055071335,
        "Satellite Name": "Starlink Shell 1 189",
        "Satellite Number": 189,
        "Semi-Major Axis(m)": 6931778.249405717,
        "Time(s)": 370
    }
]